ORBCOMM-X               
1 21576U 91050C   25152.70913471  .00000817  00000+0  25538-3 0  9994
2 21576  98.3440 219.6224 0002756 215.9373 144.1632 14.43254453779882
ORBCOMM FM01            
1 23545U 95017A   25152.96066402  .00008915  00000+0  93252-3 0  9995
2 23545  69.9627 112.0987 0004924 300.9564  59.1106 14.89910976610243
ORBCOMM FM02            
1 23546U 95017B   25152.64353945  .00024626  00000+0  25015-2 0  9990
2 23546  69.9637 132.3290 0006209 309.3808  50.6797 14.90745671609845
ORBCOMM FM08            
1 25112U 97084A   25152.84067738  .00002002  00000+0  59974-3 0  9997
2 25112  45.0135  81.5305 0004756 175.3928 184.6968 14.45767739439157
ORBCOMM FM10            
1 25113U 97084B   25152.88865852  .00002098  00000+0  62920-3 0  9995
2 25113  45.0147  83.6540 0003180 126.9830 233.1313 14.45556372614304
ORBCOMM FM11            
1 25114U 97084C   25152.54493656  .00003341  00000+0  98238-3 0  9991
2 25114  45.0141  85.9076 0003895 128.7108 231.4092 14.45317741439214
ORBCOMM FM12            
1 25115U 97084D   25152.92239012  .00001668  00000+0  51094-3 0  9997
2 25115  45.0149  83.8490 0002984 124.1724 235.9410 14.45329312439065
ORBCOMM FM09            
1 25116U 97084E   25152.88426646  .00001710  00000+0  52425-3 0  9991
2 25116  45.0152  84.9494 0004486 113.0005 247.1319 14.45205990439264
